[{"OBJECT_NAME":"OMNI-L2","OBJECT_ID":"2022-057AR","EPOCH":"2026-03-09T18:02:52.792224","MEAN_MOTION":14.8107523,"ECCENTRICITY":0.00052733,"INCLINATION":97.481,"RA_OF_ASC_NODE":137.7671,"ARG_OF_PERICENTER":294.5494,"MEAN_ANOMALY":65.517,"EPHEMERIS_TYPE":0,"CLASSIFICATION_TYPE":"U","NORAD_CAT_ID":52771,"ELEMENT_SET_NO":999,"REV_AT_EPOCH":20567,"BSTAR":0.00027609772,"MEAN_MOTION_DOT":2.095e-5,"MEAN_MOTION_DDOT":0},{"OBJECT_NAME":"SL-14 R\/B","OBJECT_ID":"1987-038B","EPOCH":"2026-03-09T16:49:27.049728","MEAN_MOTION":14.85369371,"ECCENTRICITY":0.00196849,"INCLINATION":82.5,"RA_OF_ASC_NODE":296.7973,"ARG_OF_PERICENTER":160.3861,"MEAN_ANOMALY":199.8117,"EPHEMERIS_TYPE":0,"CLASSIFICATION_TYPE":"U","NORAD_CAT_ID":17912,"ELEMENT_SET_NO":999,"REV_AT_EPOCH":7923,"BSTAR":5.9620516e-5,"MEAN_MOTION_DOT":5.39e-6,"MEAN_MOTION_DDOT":0}]
